H1 CPF 01  gfz 2021 06 26 00  6771 terrasarx 
H2 0702601  6201 31698    2021 06 26 00 59 42 2021 07 01 00 00 42   120 1 1  0 0 0
H9
10 0 59391  86382.000000  0     528917.513  -5779710.242  -3719560.908
10 0 59392    102.000000  0     374645.999  -6227779.649  -2930054.995
10 0 59392    222.000000  0     206978.846  -6564493.728  -2089121.829
10 0 59392    342.000000  0      30837.492  -6783683.108  -1211486.810
10 0 59392    462.000000  0    -148613.702  -6881323.452   -312551.389
10 0 59392    582.000000  0    -326096.908  -6855618.657    591882.171
10 0 59392    702.000000  0    -496354.052  -6707040.685   1485895.307
10 0 59392    822.000000  0    -654280.454  -6438324.519   2353742.361
10 0 59392    942.000000  0    -795055.300  -6054416.599   3180137.722
10 0 59392   1062.000000  0    -914264.327  -5562377.032   3950533.530
10 0 59392   1182.000000  0   -1008013.491  -4971240.669   4651379.537
10 0 59392   1302.000000  0   -1073030.365  -4291841.883   5270362.850
10 0 59392   1422.000000  0   -1106750.023  -3536606.910   5796624.021
10 0 59392   1542.000000  0   -1107384.717  -2719316.123   6220945.018
10 0 59392   1662.000000  0   -1073974.450  -1854844.389   6535903.379
10 0 59392   1782.000000  0   -1006418.706   -958887.285   6735995.279
10 0 59392   1902.000000  0    -905489.815    -47674.030   6817727.061
10 0 59392   2022.000000  0    -772826.857    862326.949   6779672.274
10 0 59392   2142.000000  0    -610908.829   1754705.214   6622495.395
10 0 59392   2262.000000  0    -423008.246   2613403.837   6348940.823
10 0 59392   2382.000000  0    -213126.250   3423008.221   5963787.892
10 0 59392   2502.000000  0      14089.303   4169024.731   5473772.393
10 0 59392   2622.000000  0     253442.044   4838143.889   4887474.466
10 0 59392   2742.000000  0     499300.451   5418485.119   4215174.891
10 0 59392   2862.000000  0     745722.841   5899815.125   3468677.139
10 0 59392   2982.000000  0     986591.953   6273737.299   2661106.925
10 0 59392   3102.000000  0    1215759.057   6533853.528   1806678.594
10 0 59392   3222.000000  0    1427189.171   6675879.214    920438.966
10 0 59392   3342.000000  0    1615106.583   6697719.079     17995.414
10 0 59392   3462.000000  0    1774136.416   6599497.913   -884767.073
10 0 59392   3582.000000  0    1899437.984   6383547.196  -1771973.483
10 0 59392   3702.000000  0    1986827.410   6054348.452  -2628045.183
10 0 59392   3822.000000  0    2032886.289   5618434.289  -3437979.572
10 0 59392   3942.000000  0    2035053.694   5084249.312  -4187616.846
10 0 59392   4062.000000  0    1991699.169   4461974.522  -4863887.096
10 0 59392   4182.000000  0    1902175.116   3763321.983  -5455032.992
10 0 59392   4302.000000  0    1766848.722   3001305.672  -5950805.975
10 0 59392   4422.000000  0    1587112.008   2189992.359  -6342634.036
10 0 59392   4542.000000  0    1365370.721   1344239.005  -6623757.738
10 0 59392   4662.000000  0    1105013.495    479422.241  -6789336.333
10 0 59392   4782.000000  0     810360.048   -388837.674  -6836522.816
10 0 59392   4902.000000  0     486589.859  -1244953.678  -6764506.610
10 0 59392   5022.000000  0     139653.089  -2073644.143  -6574524.421
10 0 59392   5142.000000  0    -223835.078  -2860197.692  -6269842.416
10 0 59392   5262.000000  0    -596717.077  -3590730.974  -5855707.487
10 0 59392   5382.000000  0    -971429.094  -4252431.853  -5339265.276
10 0 59392   5502.000000  0   -1340149.280  -4833785.908  -4729448.784
10 0 59392   5622.000000  0   -1694956.583  -5324783.014  -4036835.369
10 0 59392   5742.000000  0   -2027996.846  -5717098.520  -3273473.027
10 0 59392   5862.000000  0   -2331652.431  -6004244.868  -2452678.364
10 0 59392   5982.000000  0   -2598711.883  -6181690.511  -1588808.914
10 0 59392   6102.000000  0   -2822535.676  -6246942.855   -697012.346
10 0 59392   6222.000000  0   -2997213.717  -6199591.071    207043.443
10 0 59392   6342.000000  0   -3117709.775  -6041306.445   1107452.632
10 0 59392   6462.000000  0   -3179989.310  -5775800.883   1988359.992
10 0 59392   6582.000000  0   -3181127.167  -5408743.587   2834249.434
10 0 59392   6702.000000  0   -3119392.144  -4947638.517   3630225.219
10 0 59392   6822.000000  0   -2994306.419  -4401666.480   4362280.238
10 0 59392   6942.000000  0   -2806679.046  -3781495.522   5017545.832
10 0 59392   7062.000000  0   -2558612.976  -3099064.456   5584518.404
10 0 59392   7182.000000  0   -2253484.247  -2367345.464   6053258.525
10 0 59392   7302.000000  0   -1895895.530  -1600092.571   6415560.462
10 0 59392   7422.000000  0   -1491604.359   -811579.180   6665091.540
10 0 59392   7542.000000  0   -1047427.713    -16328.737   6797495.653
10 0 59392   7662.000000  0    -571126.958    771151.961   6810462.889
10 0 59392   7782.000000  0     -71272.434   1536636.525   6703768.313
10 0 59392   7902.000000  0     442910.670   2266435.843   6479275.833
10 0 59392   8022.000000  0     961712.257   2947642.773   6140907.088
10 0 59392   8142.000000  0    1475119.597   3568360.916   5694577.331
10 0 59392   8262.000000  0    1973009.552   4117915.681   5148097.975
10 0 59392   8382.000000  0    2445348.427   4587043.295   4511046.191
10 0 59392   8502.000000  0    2882395.315   4968053.098   3794601.277
10 0 59392   8622.000000  0    3274903.131   5254959.487   3011352.760
10 0 59392   8742.000000  0    3614316.751   5443585.289   2175081.237
10 0 59392   8862.000000  0    3892960.692   5531626.508   1300510.334
10 0 59392   8982.000000  0    4104209.344   5518679.365    403042.880
10 0 59392   9102.000000  0    4242638.935   5406229.654   -501519.304
10 0 59392   9222.000000  0    4304155.689   5197601.592  -1397261.878
10 0 59392   9342.000000  0    4286097.898   4897871.260  -2268445.741
10 0 59392   9462.000000  0    4187308.344   4513745.432  -3099790.513
10 0 59392   9582.000000  0    4008175.284   4053409.176  -3876747.464
10 0 59392   9702.000000  0    3750641.811   3526346.062  -4585754.380
10 0 59392   9822.000000  0    3418185.439   2943137.514  -5214469.145
10 0 59392   9942.000000  0    3015766.829   2315245.281  -5751978.548
10 0 59392  10062.000000  0    2549750.321   1654782.633  -6188978.314
10 0 59392  10182.000000  0    2027798.401    974279.085  -6517922.915
10 0 59392  10302.000000  0    1458743.134    286444.335  -6733143.307
10 0 59392  10422.000000  0     852437.495   -396064.784  -6830935.694
10 0 59392  10542.000000  0     219585.549  -1060872.976  -6809618.782
10 0 59392  10662.000000  0    -428442.551  -1696104.980  -6669557.612
10 0 59392  10782.000000  0   -1079809.078  -2290591.478  -6413158.609
10 0 59392  10902.000000  0   -1722420.108  -2834062.310  -6044833.620
10 0 59392  11022.000000  0   -2344144.775  -3317322.183  -5570931.389
10 0 59392  11142.000000  0   -2933040.322  -3732407.081  -4999639.785
10 0 59392  11262.000000  0   -3477581.293  -4072720.122  -4340856.469
10 0 59392  11382.000000  0   -3966886.557  -4333141.976  -3606027.420
10 0 59392  11502.000000  0   -4390939.688  -4510114.053  -2807956.978
10 0 59392  11622.000000  0   -4740798.617  -4601692.341  -1960590.182
10 0 59392  11742.000000  0   -5008788.787  -4607569.526  -1078770.936
10 0 59392  11862.000000  0   -5188674.758  -4529064.652   -177980.165
10 0 59392  11982.000000  0   -5275805.930  -4369080.290    725941.092
10 0 59392  12102.000000  0   -5267231.532  -4132027.070   1617078.940
10 0 59392  12222.000000  0   -5161780.830  -3823716.449   2479736.619
10 0 59392  12342.000000  0   -4960107.025  -3451225.216   3298719.643
10 0 59392  12462.000000  0   -4664694.179  -3022735.920   4059610.369
10 0 59392  12582.000000  0   -4279826.699  -2547356.628   4749027.145
10 0 59392  12702.000000  0   -3811522.021  -2034924.872   5354860.325
10 0 59392  12822.000000  0   -3267431.032  -1495802.498   5866482.422
10 0 59392  12942.000000  0   -2656707.555   -940664.749   6274931.879
10 0 59392  13062.000000  0   -1989847.795   -380286.497   6573065.756
10 0 59392  13182.000000  0   -1278504.193    174668.145   6755677.386
10 0 59392  13302.000000  0    -535279.579    713846.970   6819580.617
10 0 59392  13422.000000  0     226496.142   1227401.727   6763662.075
10 0 59392  13542.000000  0     993004.426   1706167.667   6588899.552
10 0 59392  13662.000000  0    1750188.214   2141827.371   6298345.553
10 0 59392  13782.000000  0    2484008.753   2527055.172   5897076.963
10 0 59392  13902.000000  0    3180706.299   2855641.726   5392112.658
10 0 59392  14022.000000  0    3827061.389   3122596.723   4792296.856
10 0 59392  14142.000000  0    4410648.756   3324227.039   4108148.832
10 0 59392  14262.000000  0    4920081.667   3458188.881   3351684.883
10 0 59392  14382.000000  0    5345243.702   3523513.851   2536208.076
10 0 59392  14502.000000  0    5677495.349   3520604.454   1676072.110
10 0 59392  14622.000000  0    5909855.065   3451202.764    786424.774
10 0 59392  14742.000000  0    6037149.053   3318330.843   -117066.450
10 0 59392  14862.000000  0    6056124.606   3126203.830  -1018499.146
10 0 59392  14982.000000  0    5965525.171   2880118.461  -1902024.428
10 0 59392  15102.000000  0    5766124.325   2586321.322  -2752132.586
10 0 59392  15222.000000  0    5460719.809   2251859.612  -3553930.909
10 0 59392  15342.000000  0    5054087.839   1884417.345  -4293407.095
10 0 59392  15462.000000  0    4552897.949   1492141.782  -4957673.979
10 0 59392  15582.000000  0    3965591.692   1083465.169  -5535187.738
10 0 59392  15702.000000  0    3302231.330    666926.647  -6015939.752
10 0 59392  15822.000000  0    2574319.603    250997.139  -6391619.953
10 0 59392  15942.000000  0    1794595.561   -156088.834  -6655748.469
10 0 59392  16062.000000  0     976811.891   -546491.700  -6803776.952
10 0 59392  16182.000000  0     135494.166   -912913.941  -6833159.613
10 0 59392  16302.000000  0    -714312.660  -1248732.302  -6743390.469
10 0 59392  16422.000000  0   -1557306.102  -1548114.011  -6536011.421
99
